[
  {
    "name": "PLEIADES NEO 3",
    "line1": "1 48268U 21034A   26004.82457933 -.00000124  00000+0 -91326-5 0  9995",
    "line2": "2 48268  97.8946  81.9351 0001317  85.1640 274.9723 14.81671679253460",
    "catNr": 48268
  },
  {
    "name": "PLEIADES NEO 4",
    "line1": "1 49070U 21073E   26004.85833297 -.00000063  00000+0 -13579-5 0  9990",
    "line2": "2 49070  97.8950  81.9643 0001316  88.3292 271.8071 14.81670063237187",
    "catNr": 49070
  }
]